MEAN_MOTION;ECCENTRICITY;INCLINATION;RA_OF_ASC_NODE;ARG_OF_PERICENTER;MEAN_ANOMALY;BSTAR;MEAN_MOTION_DOT;MEAN_MOTION_DDOT;TYPE
12.62702429;0.0001208;51.9888;67.3815;104.0342;283.3077;2.4775E-5;-9.9E-7;0;Globalstar
12.62702432;0.0001209;51.9888;66.8658;104.0683;332.816;2.1808E-5;-1.0E-6;0;Globalstar
12.6270242;0.0001207;51.9889;65.6024;104.5591;57.5765;1.3875E-5;-1.01E-6;0;Globalstar
12.62702413;0.0001206;51.989;63.7275;105.1216;334.8642;5.6367E-6;-1.03E-6;0;Globalstar
12.62702421;0.0001202;51.989;62.7161;105.4231;43.691;6.8201E-6;-1.03E-6;0;Globalstar
12.62702422;0.0001198;51.9892;60.5998;106.3463;320.9206;-4.6208E-8;-1.04E-6;0;Globalstar
12.6270242;0.0001197;51.9892;59.8269;106.3349;34.254;-3.0029E-6;-1.04E-6;0;Globalstar
12.62702431;0.0001192;51.9894;58.4632;106.8579;268.7273;-8.2716E-6;-1.05E-6;0;Globalstar
12.62702436;0.0001193;51.9894;56.6845;107.3532;42.4861;-2.3673E-5;-1.08E-6;0;Globalstar
12.62702434;0.0001181;51.9896;52.1763;109.5124;287.6308;-5.9277E-5;-1.15E-6;0;Globalstar
12.6270242;0.0001187;51.9897;51.9025;109.1436;336.5731;-6.7886E-5;-1.16E-6;0;Globalstar
12.62702428;0.0001191;51.9898;49.2874;108.966;279.1683;-5.3662E-5;-1.14E-6;0;Globalstar
12.62702418;0.0001199;51.9898;48.2695;108.8316;358.2989;-4.9512E-5;-1.13E-6;0;Globalstar
12.62702398;0.0001196;51.9898;47.7639;109.1813;32.4189;-6.6602E-5;-1.16E-6;0;Globalstar
12.62702383;0.00012;51.9899;45.3765;109.7083;354.4548;-6.8279E-5;-1.16E-6;0;Globalstar
12.6270236;0.0001201;51.9901;42.2385;110.6859;356.2211;-5.2514E-5;-1.13E-6;0;Globalstar
12.62702364;0.0001201;51.9901;41.7329;110.8496;30.4253;-4.8465E-5;-1.13E-6;0;Globalstar
12.62702343;0.0001194;51.9903;38.5908;112.1974;38.0301;-3.8816E-5;-1.11E-6;0;Globalstar
12.62702339;0.0001193;51.9904;36.9737;112.7047;290.6269;-3.2583E-5;-1.1E-6;0;Globalstar
12.62702332;0.0001192;51.9904;35.7011;112.8559;29.6323;-1.7316E-5;-1.07E-6;0;Globalstar
12.62702327;0.0001196;51.9906;33.044;113.5065;34.1736;-6.5107E-6;-1.05E-6;0;Globalstar
12.6270233;0.0001195;51.9906;32.5598;113.5057;36.8525;-8.1162E-6;-1.05E-6;0;Globalstar
12.62702325;0.0001194;51.9908;29.906;114.2506;36.5003;-2.3903E-6;-1.04E-6;0;Globalstar
12.6270234;0.0001197;51.9909;26.7889;115.0867;7.5893;-5.9578E-6;-1.05E-6;0;Globalstar
12.62702347;0.0001205;51.991;23.8752;115.8873;35.1256;-1.1261E-5;-1.06E-6;0;Globalstar
12.62702338;0.0001206;51.991;20.983;117.2078;30.121;-2.5863E-5;-1.09E-6;0;Globalstar
12.62702329;0.0001208;51.9911;18.6175;117.8489;319.6738;-3.9942E-5;-1.11E-6;0;Globalstar
12.62702326;0.0001206;51.9911;17.8353;118.0703;46.7672;-3.1609E-5;-1.1E-6;0;Globalstar
12.62702327;0.0001205;51.9911;15.748;118.9166;281.0344;-4.1475E-5;-1.11E-6;0;Globalstar
12.6270232;0.0001204;51.9911;12.5867;119.8807;317.8239;-2.8018E-5;-1.09E-6;0;Globalstar
12.62702325;0.0001204;51.9911;11.5785;120.1035;22.2533;-9.8216E-6;-1.06E-6;0;Globalstar
12.62702335;0.0001206;51.9911;8.4359;121.2914;30.9036;8.8267E-6;-1.02E-6;0;Globalstar
12.6270235;0.0001208;51.991;6.5555;122.253;316.0964;2.4856E-5;-9.9E-7;0;Globalstar
12.62702421;0.000121;51.991;4.8863;122.6115;286.9443;7.4772E-5;-9.0E-7;0;Globalstar
12.62702425;0.0001214;51.991;4.6333;122.6919;304.3872;8.756E-5;-8.8E-7;0;Globalstar
12.62702449;0.0001227;51.991;3.4027;123.186;340.3892;9.7844E-5;-8.6E-7;0;Globalstar
12.6270246;0.0001227;51.991;1.7485;123.6156;288.6069;0.00010345;-8.5E-7;0;Globalstar
12.62702462;0.0001227;51.991;1.4972;123.6195;303.7379;0.00011166;-8.4E-7;0;Globalstar
12.62702468;0.0001223;51.991;0.525;123.9905;314.2032;0.00010035;-8.6E-7;0;Globalstar
12.62702504;0.0001227;51.991;357.6248;125.4244;320.8573;0.00010622;-8.5E-7;0;Globalstar
12.62702495;0.0001224;51.9909;357.3723;125.5319;337.555;9.5096E-5;-8.7E-7;0;Globalstar
12.62702515;0.0001224;51.9909;354.4942;126.7615;311.3989;8.1588E-5;-8.9E-7;0;Globalstar
12.62702589;0.0001224;51.9908;351.338;128.038;340.383;0.00011914;-8.2E-7;0;Globalstar
12.62702613;0.0001222;51.9907;350.3708;128.3686;343.5058;0.00013113;-8.0E-7;0;Globalstar
12.62702633;0.000122;51.9906;348.198;129.2626;345.1807;0.00012157;-8.2E-7;0;Globalstar
12.62702675;0.0001217;51.9906;346.7949;129.9192;278.341;0.00012534;-8.1E-7;0;Globalstar
12.62702698;0.0001229;51.9905;345.3085;130.4607;336.1204;0.00013414;-8.0E-7;0;Globalstar
12.62702737;0.0001236;51.9903;342.4325;131.7654;306.5489;0.00013321;-8.0E-7;0;Globalstar
12.62702778;0.0001239;51.9901;339.2947;133.1492;307.7064;0.00014157;-7.8E-7;0;Globalstar
12.62702764;0.0001235;51.99;339.018;133.1789;0.6483;0.00013476;-8.0E-7;0;Globalstar
12.62702799;0.0001228;51.9899;336.3885;134.4055;323.235;0.00014425;-7.8E-7;0;Globalstar
12.62702804;0.0001223;51.9898;335.3928;134.6816;8.8931;0.00015297;-7.6E-7;0;Globalstar
12.6270284;0.0001221;51.9897;332.9893;135.7105;354.4544;0.00016848;-7.4E-7;0;Globalstar
12.62702889;0.0001219;51.9896;330.3696;137.0778;302.1354;0.0001767;-7.2E-7;0;Globalstar
12.62703014;0.0001216;51.9895;326.977;138.8277;323.0038;0.00022545;-6.3E-7;0;Globalstar
12.62703059;0.0001204;51.9894;324.339;140.2277;298.154;0.00020324;-6.7E-7;0;Globalstar
12.62703062;0.0001205;51.9894;323.8606;140.4288;291.9138;0.000206;-6.7E-7;0;Globalstar
12.62703103;0.0001205;51.9893;320.946;142.2068;319.2829;0.00017242;-7.3E-7;0;Globalstar
12.6270309;0.0001202;51.9893;320.7083;142.2006;314.0099;0.00016217;-7.5E-7;0;Globalstar
12.62703101;0.0001192;51.9892;317.7784;143.7853;4.7429;0.00011224;-8.4E-7;0;Globalstar
12.62703126;0.0001194;51.9891;317.2936;144.0843;7.8346;0.00011661;-8.3E-7;0;Globalstar
12.62703161;0.0001189;51.989;314.6428;145.4709;2.1572;0.00010133;-8.6E-7;0;Globalstar
12.62703194;0.0001192;51.989;314.1847;145.7511;325.5721;0.00010993;-8.4E-7;0;Globalstar
12.62703208;0.0001189;51.9889;312.0082;147.1881;331.9903;9.328E-5;-8.7E-7;0;Globalstar
12.62703233;0.0001174;51.9888;310.6077;147.7839;261.0771;9.8541E-5;-8.6E-7;0;Globalstar
12.62703261;0.0001178;51.9887;308.8833;148.9914;313.1485;0.00011284;-8.4E-7;0;Globalstar
12.62703288;0.0001176;51.9887;308.4066;149.1374;304.364;0.00012855;-8.1E-7;0;Globalstar
12.62703345;0.0001162;51.9885;302.8521;152.7265;309.1191;0.00014609;-7.8E-7;0;Globalstar
12.62703371;0.0001162;51.9885;300.2137;154.6917;284.1443;0.00014269;-7.8E-7;0;Globalstar
12.62703389;0.0001158;51.9884;299.1994;155.2848;357.1658;0.0001578;-7.5E-7;0;Globalstar
12.6270341;0.0001155;51.9884;296.5824;157.1249;300.274;0.00015734;-7.6E-7;0;Globalstar
12.62703417;0.0001159;51.9884;296.0607;157.6709;358.2251;0.00014709;-7.7E-7;0;Globalstar
12.62703457;0.0001156;51.9884;293.441;159.648;305.2942;0.00015106;-7.7E-7;0;Globalstar
12.62703493;0.0001157;51.9884;291.5668;161.4794;220.1362;0.00013198;-8.0E-7;0;Globalstar
12.62703501;0.0001151;51.9884;290.5509;162.1529;295.503;0.00013256;-8.0E-7;0;Globalstar
12.62703538;0.000115;51.9884;288.1507;164.2961;275.0427;9.9349E-5;-8.6E-7;0;Globalstar
12.62703528;0.0001123;51.9884;284.4872;166.4538;339.5769;5.7899E-5;-9.3E-7;0;Globalstar
12.62703542;0.000112;51.9884;284.232;166.5315;0.3533;6.5546E-5;-9.2E-7;0;Globalstar
12.62703528;0.0001118;51.9884;282.1194;168.4031;270.9603;8.492E-6;-1.02E-6;0;Globalstar
12.62703557;0.0001108;51.9884;279.491;170.4425;231.0152;1.7063E-6;-1.04E-6;0;Globalstar
12.62703526;0.0001102;51.9884;279.2264;170.3388;266.0472;-1.6043E-5;-1.07E-6;0;Globalstar
12.62703537;0.0001095;51.9884;278.2005;170.8269;356.3437;-4.8602E-6;-1.05E-6;0;Globalstar
12.62703549;0.0001086;51.9884;276.3624;172.2773;217.9072;-1.1904E-5;-1.06E-6;0;Globalstar
12.6270355;0.0001086;51.9884;276.0883;172.5471;266.5578;-9.8015E-6;-1.06E-6;0;Globalstar
12.62703575;0.0001094;51.9884;275.3131;173.6612;342.3305;9.8408E-6;-1.02E-6;0;Globalstar
12.62703549;0.0001084;51.9884;273.1684;175.307;300.9561;-9.2375E-6;-1.06E-6;0;Globalstar
12.62703586;0.0001082;51.9883;272.1899;175.9884;320.481;3.3094E-5;-9.8E-7;0;Globalstar
12.62703582;0.0001077;51.9883;269.307;178.7596;299.5664;4.9606E-5;-9.5E-7;0;Globalstar
12.62703573;0.0001076;51.9883;269.0433;179.1328;332.7386;4.0246E-5;-9.7E-7;0;Globalstar
12.62703595;0.0001065;51.9883;266.1584;181.884;314.9329;7.623E-5;-9.0E-7;0;Globalstar
12.62703601;0.0001063;51.9883;265.9037;182.119;334.7684;7.698E-5;-9.0E-7;0;Globalstar
12.62703668;0.0001054;51.9884;261.6546;186.7082;191.0413;0.00012955;-8.1E-7;0;Globalstar
12.62703673;0.0001046;51.9884;260.6326;187.5483;275.2655;0.00013309;-8.0E-7;0;Globalstar
12.62703693;0.0001032;51.9885;257.9947;189.837;249.428;0.00011866;-8.3E-7;0;Globalstar
12.62703713;0.0001025;51.9885;256.9805;191.0006;321.6856;0.00012891;-8.1E-7;0;Globalstar
12.62703716;0.0001017;51.9885;254.8685;192.9963;231.4682;9.7843E-5;-8.6E-7;0;Globalstar
12.62703723;0.0001012;51.9885;254.0961;193.8288;303.3143;9.2866E-5;-8.7E-7;0;Globalstar
12.62703722;0.0001012;51.9885;253.8409;194.1813;323.6839;8.0283E-5;-8.9E-7;0;Globalstar
12.62703725;0.0001007;51.9885;251.9637;196.0011;243.2195;4.7239E-5;-9.5E-7;0;Globalstar
12.62703738;9.94E-5;51.9885;250.9508;196.8413;313.9636;4.9164E-5;-9.5E-7;0;Globalstar
12.62703739;9.83E-5;51.9885;248.0647;200.0367;297.8311;3.1791E-7;-1.04E-6;0;Globalstar
12.62703741;9.76E-5;51.9885;246.7017;201.4808;170.3954;-9.4524E-6;-1.06E-6;0;Globalstar
12.62703777;9.69E-5;51.9884;244.9199;203.3618;307.5954;1.2645E-6;-1.04E-6;0;Globalstar
12.62703784;9.66E-5;51.9884;243.0403;205.4228;230.359;-1.001E-5;-1.06E-6;0;Globalstar
12.62703805;9.6E-5;51.9883;242.0341;206.7163;290.8015;1.1709E-5;-1.02E-6;0;Globalstar
12.62703827;9.57E-5;51.9882;239.412;209.6304;240.8131;3.3514E-5;-9.8E-7;0;Globalstar
12.62703839;9.52E-5;51.9883;238.8899;210.2918;299.3014;4.1605E-5;-9.6E-7;0;Globalstar
12.62703863;9.42E-5;51.9882;235.7454;213.6816;308.4351;8.403E-5;-8.9E-7;0;Globalstar
12.62703886;9.4E-5;51.9881;232.8589;216.9429;292.785;0.00012657;-8.1E-7;0;Globalstar
12.627039;9.36E-5;51.9881;230.7441;219.2358;206.435;0.00015039;-7.7E-7;0;Globalstar
12.6270392;9.3E-5;51.988;229.9719;220.1842;277.8585;0.00017342;-7.3E-7;0;Globalstar
12.6270394;9.3E-5;51.988;227.601;222.9301;213.0588;0.00017864;-7.2E-7;0;Globalstar
12.62703959;9.26E-5;51.988;226.8277;224.0682;285.9584;0.00018756;-7.0E-7;0;Globalstar
